start=new Date('2021-11-19T00:00:00.000Z').valueOf();
sats=[{"MEAN_ELEMENT_THEORY":"SGP4","PERIAPSIS":"546.208","MEAN_ANOMALY":"289.3829","CLASSIFICATION_TYPE":"U","TLE_LINE2":"2 48112  53.0553  33.4978 0001446  70.7316 289.3829 15.06401239 35417","RCS_SIZE":"LARGE","CENTER_NAME":"EARTH","MEAN_MOTION_DDOT":"0.0000000000000","ECCENTRICITY":"0.00014460","OBJECT_NAME":"STARLINK-2449","BSTAR":"0.00003549000000","ARG_OF_PERICENTER":"70.7316","LAUNCH_DATE":"2021-04-07","EPHEMERIS_TYPE":"0","TLE_LINE1":"1 48112U 21027W   21322.71447116  .00000247  00000-0  35490-4 0  9997","PERIOD":"95.592","REF_FRAME":"TEME","SEMIMAJOR_AXIS":"6925.345","MEAN_MOTION":"15.06401239","RA_OF_ASC_NODE":"33.4978","ELEMENT_SET_NO":"999","OBJECT_ID":"2021-027W","INCLINATION":"53.0553","EPOCH":"2021-11-18T17:08:50.308224","APOAPSIS":"548.211","DECAY_DATE":null,"GP_ID":"190038526","NORAD_CAT_ID":"48112","REV_AT_EPOCH":"3541","TIME_SYSTEM":"UTC","SITE":"AFETR","FILE":"3218669","OBJECT_TYPE":"PAYLOAD","MEAN_MOTION_DOT":"0.00000247","COUNTRY_CODE":"US"},{"PERIAPSIS":"546.037","MEAN_ANOMALY":"296.4022","MEAN_ELEMENT_THEORY":"SGP4","RCS_SIZE":"LARGE","TLE_LINE2":"2 48113  53.0573  29.0025 0001695  63.7141 296.4022 15.06400999 35458","CLASSIFICATION_TYPE":"U","ARG_OF_PERICENTER":"63.7141","EPHEMERIS_TYPE":"0","LAUNCH_DATE":"2021-04-07","MEAN_MOTION_DDOT":"0.0000000000000","CENTER_NAME":"EARTH","BSTAR":"0.00004022000000","ECCENTRICITY":"0.00016950","OBJECT_NAME":"STARLINK-2450","ELEMENT_SET_NO":"999","OBJECT_ID":"2021-027X","INCLINATION":"53.0573","SEMIMAJOR_AXIS":"6925.345","TLE_LINE1":"1 48113U 21027X   21322.59976822  .00000318  00000-0  40220-4 0  9991","REF_FRAME":"TEME","PERIOD":"95.592","RA_OF_ASC_NODE":"29.0025","MEAN_MOTION":"15.06400999","APOAPSIS":"548.384","DECAY_DATE":null,"NORAD_CAT_ID":"48113","GP_ID":"190038776","EPOCH":"2021-11-18T14:23:39.974208","REV_AT_EPOCH":"3545","OBJECT_TYPE":"PAYLOAD","FILE":"3218669","TIME_SYSTEM":"UTC","SITE":"AFETR","COUNTRY_CODE":"US","MEAN_MOTION_DOT":"0.00000318"},{"MEAN_MOTION_DOT":"0.00000230","COUNTRY_CODE":"US","SITE":"AFETR","TIME_SYSTEM":"UTC","FILE":"3218461","OBJECT_TYPE":"PAYLOAD","REV_AT_EPOCH":"3549","EPOCH":"2021-11-18T07:05:04.964640","GP_ID":"190010687","NORAD_CAT_ID":"48114","APOAPSIS":"548.191","DECAY_DATE":null,"MEAN_MOTION":"15.06399571","RA_OF_ASC_NODE":"25.3750","PERIOD":"95.592","TLE_LINE1":"1 48114U 21027Y   21322.29519635  .00000230  00000-0  34349-4 0  9992","REF_FRAME":"TEME","SEMIMAJOR_AXIS":"6925.350","OBJECT_ID":"2021-027Y","INCLINATION":"53.0580","ELEMENT_SET_NO":"999","ECCENTRICITY":"0.00014100","OBJECT_NAME":"STARLINK-2451","BSTAR":"0.00003434900000","CENTER_NAME":"EARTH","MEAN_MOTION_DDOT":"0.0000000000000","LAUNCH_DATE":"2021-04-07","EPHEMERIS_TYPE":"0","ARG_OF_PERICENTER":"67.0350","CLASSIFICATION_TYPE":"U","TLE_LINE2":"2 48114  53.0580  25.3750 0001410  67.0350 293.0787 15.06399571 35493","RCS_SIZE":"LARGE","MEAN_ELEMENT_THEORY":"SGP4","MEAN_ANOMALY":"293.0787","PERIAPSIS":"546.238"},{"FILE":"3218669","OBJECT_TYPE":"PAYLOAD","SITE":"AFETR","TIME_SYSTEM":"UTC","COUNTRY_CODE":"US","MEAN_MOTION_DOT":"-0.00001509","GP_ID":"190040278","NORAD_CAT_ID":"48115","DECAY_DATE":null,"APOAPSIS":"548.302","EPOCH":"2021-11-18T15:43:15.729888","REV_AT_EPOCH":"3561","EPHEMERIS_TYPE":"0","LAUNCH_DATE":"2021-04-07","ARG_OF_PERICENTER":"58.2660","ECCENTRICITY":"0.00015220","OBJECT_NAME":"STARLINK-2452","BSTAR":"-0.00008242000000","CENTER_NAME":"EARTH","MEAN_MOTION_DDOT":"0.0000000000000","INCLINATION":"53.0571","OBJECT_ID":"2021-027Z","ELEMENT_SET_NO":"999","RA_OF_ASC_NODE":"18.7493","MEAN_MOTION":"15.06388879","TLE_LINE1":"1 48115U 21027Z   21322.65504317 -.00001509  00000-0 -82420-4 0  9999","PERIOD":"95.593","REF_FRAME":"TEME","SEMIMAJOR_AXIS":"6925.383","PERIAPSIS":"546.194","MEAN_ANOMALY":"301.8477","MEAN_ELEMENT_THEORY":"SGP4","TLE_LINE2":"2 48115  53.0571  18.7493 0001522  58.2660 301.8477 15.06388879 35611","RCS_SIZE":"LARGE","CLASSIFICATION_TYPE":"U"},{"MEAN_ANOMALY":"280.4860","PERIAPSIS":"546.307","MEAN_ELEMENT_THEORY":"SGP4","TLE_LINE2":"2 48116  53.0567  29.0323 0001328  79.6279 280.4860 15.06395726 35461","RCS_SIZE":"LARGE","CLASSIFICATION_TYPE":"U","ARG_OF_PERICENTER":"79.6279","EPHEMERIS_TYPE":"0","LAUNCH_DATE":"2021-04-07","CENTER_NAME":"EARTH","MEAN_MOTION_DDOT":"0.0000000000000","OBJECT_NAME":"STARLINK-2454","ECCENTRICITY":"0.00013280","BSTAR":"0.00005139800000","ELEMENT_SET_NO":"999","OBJECT_ID":"2021-027AA","INCLINATION":"53.0567","TLE_LINE1":"1 48116U 21027AA  21322.59609056  .00000484  00000-0  51398-4 0  9998","REF_FRAME":"TEME","PERIOD":"95.592","SEMIMAJOR_AXIS":"6925.362","RA_OF_ASC_NODE":"29.0323","MEAN_MOTION":"15.06395726","APOAPSIS":"548.146","DECAY_DATE":null,"GP_ID":"190039026","NORAD_CAT_ID":"48116","EPOCH":"2021-11-18T14:18:22.224384","REV_AT_EPOCH":"3546","FILE":"3218669","OBJECT_TYPE":"PAYLOAD","TIME_SYSTEM":"UTC","SITE":"AFETR","COUNTRY_CODE":"US","MEAN_MOTION_DOT":"0.00000484"},{"REV_AT_EPOCH":"3572","EPOCH":"2021-11-18T10:27:28.580544","NORAD_CAT_ID":"48117","GP_ID":"190010937","DECAY_DATE":null,"APOAPSIS":"548.273","MEAN_MOTION_DOT":"-0.00000347","COUNTRY_CODE":"US","SITE":"AFETR","TIME_SYSTEM":"UTC","OBJECT_TYPE":"PAYLOAD","FILE":"3218461","CLASSIFICATION_TYPE":"U","RCS_SIZE":"LARGE","TLE_LINE2":"2 48117  53.0567   9.7324 0001512  63.4568 296.6576 15.06395823 35725","MEAN_ELEMENT_THEORY":"SGP4","PERIAPSIS":"546.179","MEAN_ANOMALY":"296.6576","MEAN_MOTION":"15.06395823","RA_OF_ASC_NODE":"9.7324","SEMIMAJOR_AXIS":"6925.361","REF_FRAME":"TEME","TLE_LINE1":"1 48117U 21027AB  21322.43574746 -.00000347  00000-0 -44030-5 0  9995","PERIOD":"95.592","INCLINATION":"53.0567","OBJECT_ID":"2021-027AB","ELEMENT_SET_NO":"999","BSTAR":"-0.00000440300000","ECCENTRICITY":"0.00015120","OBJECT_NAME":"STARLINK-2455","MEAN_MOTION_DDOT":"0.0000000000000","CENTER_NAME":"EARTH","LAUNCH_DATE":"2021-04-07","EPHEMERIS_TYPE":"0","ARG_OF_PERICENTER":"63.4568"},{"MEAN_MOTION_DOT":"-0.00000196","COUNTRY_CODE":"US","TIME_SYSTEM":"UTC","SITE":"AFETR","FILE":"3218669","OBJECT_TYPE":"PAYLOAD","REV_AT_EPOCH":"3574","EPOCH":"2021-11-18T13:54:28.833696","DECAY_DATE":null,"APOAPSIS":"548.292","GP_ID":"190039528","NORAD_CAT_ID":"48118","TLE_LINE1":"1 48118U 21027AC  21322.57950039 -.00000196  00000-0  57422-5 0  9994","PERIOD":"95.593","REF_FRAME":"TEME","SEMIMAJOR_AXIS":"6925.366","RA_OF_ASC_NODE":"9.0843","MEAN_MOTION":"15.06394240","ELEMENT_SET_NO":"999","OBJECT_ID":"2021-027AC","INCLINATION":"53.0564","CENTER_NAME":"EARTH","MEAN_MOTION_DDOT":"0.0000000000000","ECCENTRICITY":"0.00015320","OBJECT_NAME":"STARLINK-2458","BSTAR":"0.00000574220000","ARG_OF_PERICENTER":"67.5207","LAUNCH_DATE":"2021-04-07","EPHEMERIS_TYPE":"0","CLASSIFICATION_TYPE":"U","TLE_LINE2":"2 48118  53.0564   9.0843 0001532  67.5207 292.5944 15.06394240 35747","RCS_SIZE":"LARGE","MEAN_ELEMENT_THEORY":"SGP4","PERIAPSIS":"546.170","MEAN_ANOMALY":"292.5944"},{"EPHEMERIS_TYPE":"0","LAUNCH_DATE":"2021-04-07","ARG_OF_PERICENTER":"80.7272","OBJECT_NAME":"STARLINK-2459","ECCENTRICITY":"0.00013360","BSTAR":"0.00002507300000","CENTER_NAME":"EARTH","MEAN_MOTION_DDOT":"0.0000000000000","INCLINATION":"53.0563","OBJECT_ID":"2021-027AD","ELEMENT_SET_NO":"999","RA_OF_ASC_NODE":"8.8016","MEAN_MOTION":"15.06395811","REF_FRAME":"TEME","TLE_LINE1":"1 48119U 21027AD  21322.64216410  .00000092  00000-0  25073-4 0  9991","PERIOD":"95.592","SEMIMAJOR_AXIS":"6925.361","MEAN_ANOMALY":"279.3869","PERIAPSIS":"546.301","MEAN_ELEMENT_THEORY":"SGP4","TLE_LINE2":"2 48119  53.0563   8.8016 0001336  80.7272 279.3869 15.06395811 35741","RCS_SIZE":"LARGE","CLASSIFICATION_TYPE":"U","FILE":"3218669","OBJECT_TYPE":"PAYLOAD","SITE":"AFETR","TIME_SYSTEM":"UTC","COUNTRY_CODE":"US","MEAN_MOTION_DOT":"0.00000092","GP_ID":"190039779","NORAD_CAT_ID":"48119","APOAPSIS":"548.152","DECAY_DATE":null,"EPOCH":"2021-11-18T15:24:42.978240","REV_AT_EPOCH":"3574"},{"EPHEMERIS_TYPE":"0","LAUNCH_DATE":"2021-04-07","ARG_OF_PERICENTER":"70.9123","ECCENTRICITY":"0.00014370","OBJECT_NAME":"STARLINK-2460","BSTAR":"0.00010497000000","CENTER_NAME":"EARTH","MEAN_MOTION_DDOT":"0.0000000000000","OBJECT_ID":"2021-027AE","INCLINATION":"53.0574","ELEMENT_SET_NO":"999","MEAN_MOTION":"15.06394454","RA_OF_ASC_NODE":"28.7852","REF_FRAME":"TEME","TLE_LINE1":"1 48120U 21027AE  21322.64768966  .00001282  00000-0  10497-3 0  9996","PERIOD":"95.592","SEMIMAJOR_AXIS":"6925.366","MEAN_ANOMALY":"289.2022","PERIAPSIS":"546.235","MEAN_ELEMENT_THEORY":"SGP4","TLE_LINE2":"2 48120  53.0574  28.7852 0001437  70.9123 289.2022 15.06394454 35486","RCS_SIZE":"LARGE","CLASSIFICATION_TYPE":"U","FILE":"3218669","OBJECT_TYPE":"PAYLOAD","SITE":"AFETR","TIME_SYSTEM":"UTC","COUNTRY_CODE":"US","MEAN_MOTION_DOT":"0.00001282","GP_ID":"190038527","NORAD_CAT_ID":"48120","DECAY_DATE":null,"APOAPSIS":"548.226","EPOCH":"2021-11-18T15:32:40.386624","REV_AT_EPOCH":"3548"},{"REV_AT_EPOCH":"3560","GP_ID":"190038777","NORAD_CAT_ID":"48121","APOAPSIS":"548.208","DECAY_DATE":null,"EPOCH":"2021-11-18T14:51:31.733856","COUNTRY_CODE":"US","MEAN_MOTION_DOT":"-0.00000218","FILE":"3218669","OBJECT_TYPE":"PAYLOAD","SITE":"AFETR","TIME_SYSTEM":"UTC","TLE_LINE2":"2 48121  53.0572  18.9138 0001442  68.0993 292.0149 15.06401261 35603","RCS_SIZE":"LARGE","CLASSIFICATION_TYPE":"U","PERIAPSIS":"546.211","MEAN_ANOMALY":"292.0149","MEAN_ELEMENT_THEORY":"SGP4","OBJECT_ID":"2021-027AF","INCLINATION":"53.0572","ELEMENT_SET_NO":"999","RA_OF_ASC_NODE":"18.9138","MEAN_MOTION":"15.06401261","TLE_LINE1":"1 48121U 21027AF  21322.61911729 -.00000218  00000-0  42576-5 0  9995","PERIOD":"95.592","REF_FRAME":"TEME","SEMIMAJOR_AXIS":"6925.345","LAUNCH_DATE":"2021-04-07","EPHEMERIS_TYPE":"0","ARG_OF_PERICENTER":"68.0993","OBJECT_NAME":"STARLINK-2462","ECCENTRICITY":"0.00014420","BSTAR":"0.00000425760000","CENTER_NAME":"EARTH","MEAN_MOTION_DDOT":"0.0000000000000"}];
